QIANFAN-9               
1 60387U 24140J   25201.51717144  .00000103  00000+0  14171-3 0  9995
2 60387  88.9848 314.3296 0014455 253.9559 106.0000 13.50953592 47714
QIANFAN-10              
1 60388U 24140K   25201.52132642  .00000103  00000+0  14184-3 0  9995
2 60388  88.9857 313.6633 0013458 228.2915 131.7086 13.50956062 48103
QIANFAN-11              
1 60389U 24140L   25201.55832362  .00000107  00000+0  14767-3 0  9996
2 60389  88.9783 314.3541 0012492 252.9779 107.0004 13.50956136 47609
QIANFAN-12              
1 60390U 24140M   25201.50477679  .00000099  00000+0  13535-3 0  9991
2 60390  88.9827 314.3396 0011186 262.2491  97.7391 13.50955940 47675
QIANFAN-13              
1 60391U 24140N   25201.55005712  .00000107  00000+0  14807-3 0  9995
2 60391  88.9839 314.4169 0010983 265.1570  94.8327 13.50955758 47654
QIANFAN-14              
1 60392U 24140P   25201.50064000  .00000108  00000+0  14940-3 0  9995
2 60392  88.9818 314.3507 0014662 265.9277  94.0198 13.50956862 47652
QIANFAN-15              
1 60393U 24140Q   25201.50897475  .00000098  00000+0  13406-3 0  9990
2 60393  88.9841 314.2720 0010668 248.9991 111.0019 13.50953692 47730
QIANFAN-16              
1 60394U 24140R   25201.57069089  .00000115  00000+0  16001-3 0  9994
2 60394  88.9844 314.3811 0012559 269.9667  90.0045 13.50956013 47690
